[{"OBJECT_NAME":"STARLINK-32514","OBJECT_ID":"2024-210G","EPOCH":"2026-03-09T07:29:58.189920","MEAN_MOTION":15.27598956,"ECCENTRICITY":8.754e-5,"INCLINATION":42.9967,"RA_OF_ASC_NODE":174.914,"ARG_OF_PERICENTER":294.8592,"MEAN_ANOMALY":65.2168,"EPHEMERIS_TYPE":0,"CLASSIFICATION_TYPE":"U","NORAD_CAT_ID":61965,"ELEMENT_SET_NO":999,"REV_AT_EPOCH":7493,"BSTAR":0.0011939396,"MEAN_MOTION_DOT":0.00032758,"MEAN_MOTION_DDOT":0},{"OBJECT_NAME":"CZ-4B DEB","OBJECT_ID":"2010-051E","EPOCH":"2026-03-08T22:01:50.125728","MEAN_MOTION":15.23766972,"ECCENTRICITY":0.00561086,"INCLINATION":97.769,"RA_OF_ASC_NODE":240.5013,"ARG_OF_PERICENTER":301.1291,"MEAN_ANOMALY":58.4449,"EPHEMERIS_TYPE":0,"CLASSIFICATION_TYPE":"U","NORAD_CAT_ID":38184,"ELEMENT_SET_NO":999,"REV_AT_EPOCH":82066,"BSTAR":0.0024566319,"MEAN_MOTION_DOT":0.00062123,"MEAN_MOTION_DDOT":0}]
